0001I         2017 09  9.4886  0.255240  1.199252  241.6845   24.5997  122.6778  20170904  23.0  2.0  1I/`Oumuamua                                             MPC107687
0002I         2019 12  8.5549  2.006548  3.356636  209.1251  308.1480   44.0527  20191223  11.0  4.0  2I/Borisov                                               MPEC 2020-K19
